OBJECT_NAME,OBJECT_ID,EPOCH,MEAN_MOTION,ECCENTRICITY,INCLINATION,RA_OF_ASC_NODE,ARG_OF_PERICENTER,MEAN_ANOMALY,EPHEMERIS_TYPE,CLASSIFICATION_TYPE,NORAD_CAT_ID,ELEMENT_SET_NO,REV_AT_EPOCH,BSTAR,MEAN_MOTION_DOT,MEAN_MOTION_DDOT
SKYSAT-C1,2016-040C,2026-06-04T15:28:14.442240,15.36078665,.00043099,96.9565,188.0459,82.8973,277.2762,0,U,41601,999,55594,.28577312E-3,.9973E-4,0
LAPAN-A3,2016-040E,2026-06-04T23:39:03.413952,15.33025285,.00119994,97.1488,152.5332,64.6346,295.6138,0,U,41603,999,55294,.12495705E-3,.3919E-4,0
GAOFEN-3,2016-049A,2026-06-04T22:37:39.275616,14.42213684,.000114,98.4010,163.9136,97.5753,262.5566,0,U,41727,999,51688,.20639389E-4,.25E-6,0
SKYSAT-C4,2016-058B,2026-06-04T14:25:12.408384,15.48178997,.00010142,96.9178,177.9032,76.6548,283.4816,0,U,41771,999,54352,.35272027E-3,.1848E-3,0
SKYSAT-C5,2016-058C,2026-06-04T21:48:28.244736,15.34287933,.00024467,97.0472,197.0980,16.5803,343.5521,0,U,41772,999,54186,.26870985E-3,.8847E-4,0
SKYSAT-C2,2016-058D,2026-06-04T14:30:33.656544,15.41772175,.00052235,97.0170,178.1756,97.1315,263.0527,0,U,41773,999,54311,.32132996E-3,.13526E-3,0
SKYSAT-C3,2016-058E,2026-06-04T15:17:37.130784,15.51982831,.00021452,96.9013,186.9718,81.3848,278.7649,0,U,41774,999,54416,.3909884E-3,.23453E-3,0
ALSAT-1B,2016-059C,2026-06-04T22:31:50.230848,14.72266550,.00077084,97.7750,165.2313,267.0455,92.9871,0,U,41785,999,51877,.12898304E-3,.768E-5,0
PATHFINDER 1,2016-059E,2026-06-04T14:12:23.090688,14.67648560,.00270531,97.8166,155.4368,245.2808,114.5581,0,U,41787,999,51786,.13888439E-3,.747E-5,0
SCATSAT 1,2016-059H,2026-06-04T15:12:52.822944,14.79499457,.0053309,98.1196,219.2704,288.9518,70.5920,0,U,41790,999,9973,.18548867E-3,.1362E-4,0
GOKTURK 1A,2016-073A,2026-06-05T00:01:59.937024,14.62765181,.00014598,98.1265,50.8665,76.7680,283.3684,0,U,41875,999,50704,.75139379E-4,.336E-5,0
RESOURCESAT-2A,2016-074A,2026-06-04T21:28:19.850016,14.21612812,.00032684,98.7525,229.4990,106.3018,253.8519,0,U,41877,999,49255,.16476588E-3,.317E-5,0
CARTOSAT-2D,2017-008A,2026-06-04T18:37:46.511328,15.19226465,.00038419,97.4117,215.3117,296.6092,63.4749,0,U,41948,999,51569,-.10973309E-3,-.2376E-4,0
SENTINEL-2B,2017-013A,2026-06-04T21:35:41.051616,14.30813158,.00012156,98.5691,230.8470,83.4662,276.6659,0,U,42063,999,48288,.62436091E-4,.12E-5,0
CARTOSAT-2E,2017-036C,2026-06-04T22:12:45.753120,15.19219423,.00035099,97.4276,215.9295,10.6370,349.4938,0,U,42767,999,49628,.17295307E-3,.3574E-4,0
FORMOSAT-5,2017-049A,2026-06-04T21:58:04.848960,14.50894183,.00125838,98.2254,231.4975,118.2673,241.9794,0,U,42920,999,46489,.685131E-4,.227E-5,0
SENTINEL-5P,2017-064A,2026-06-04T17:25:13.457280,14.19516785,.00010042,98.7922,97.9461,81.2736,278.8553,0,U,42969,999,44779,.58429051E-4,.79E-6,0
SKYSAT-C11,2017-068A,2026-06-04T11:09:55.123776,15.57213211,.00012207,97.4344,303.7498,89.5801,270.5594,0,U,42987,999,48126,.41977027E-3,.30496E-3,0
SKYSAT-C10,2017-068B,2026-06-04T04:26:58.509024,15.34404874,.00013402,97.4496,291.9093,90.5092,269.6305,0,U,42988,999,48036,.31430865E-3,.10395E-3,0
SKYSAT-C9,2017-068C,2026-06-04T04:34:08.959008,15.41226215,.00087083,97.4417,292.7260,175.2134,184.9197,0,U,42989,999,48075,.36175194E-3,.14971E-3,0
SKYSAT-C8,2017-068D,2026-06-03T15:43:49.521792,15.36695849,.00015876,97.4513,291.1227,100.5716,259.5707,0,U,42990,999,48023,.33596648E-3,.11964E-3,0
SKYSAT-C7,2017-068E,2026-06-03T07:45:06.640992,15.36634585,.00068117,97.4524,291.7746,147.4751,212.6913,0,U,42991,999,48024,.34605537E-3,.12311E-3,0
SKYSAT-C6,2017-068F,2026-06-03T20:10:13.454400,15.34215986,.00027079,97.4560,292.3173,163.5662,196.5669,0,U,42992,999,48027,.31166974E-3,.10246E-3,0
CARTOSAT-2F,2018-004A,2026-06-04T22:58:45.763104,15.19276937,.00003101,97.4791,215.7109,12.0657,348.0585,0,U,43111,999,46547,.24562943E-3,.5113E-4,0
GAOFEN-1 02,2018-031A,2026-06-04T23:08:32.540064,14.76464335,.00044898,98.0528,218.5247,60.6842,299.4816,0,U,43259,999,44089,.13903972E-3,.916E-5,0
GAOFEN-1 03,2018-031B,2026-06-04T22:37:04.238688,14.76451282,.00037911,98.0526,218.3628,103.6789,256.4843,0,U,43260,999,44088,.13451102E-3,.884E-5,0
GAOFEN-1 04,2018-031D,2026-06-04T22:02:09.016224,14.76459494,.00021969,98.0529,218.5276,94.0088,266.1373,0,U,43262,999,44087,.70225461E-4,.437E-5,0
SENTINEL-3B,2018-039A,2026-06-04T15:16:30.150912,14.26738215,.00009566,98.6251,223.3483,75.6484,284.4803,0,U,43437,999,42233,.80159365E-4,.15E-5,0
GAOFEN-5 01,2018-043A,2026-06-03T11:56:38.529888,14.60595182,.00029,98.4563,125.7972,108.1077,252.0439,0,U,43461,999,42969,.90445E-4,.391E-5,0
GAOFEN-6,2018-048A,2026-06-04T22:35:33.587808,14.76618157,.00111148,97.7760,219.0740,208.9968,151.0626,0,U,43484,999,43158,.13361425E-3,.885E-5,0
